FLOCK 4G-24             
1 62637U 25009AE  26068.72509072  .00010513  00000+0  38996-3 0  9991
2 62637  97.4061 151.5140 0001802 280.2808  79.8228 15.27784978 63732
STARLINK-34041          
1 63844U 25093J   26068.06784352  .00031096  00000+0  11342-2 0  9992
2 63844  42.9984  81.7090 0001366 276.6515  83.4181 15.27595100 47872
